ONEWEB-0258             
1 48976U 21060K   24189.21675193 -.00000029  00000+0 -10850-3 0  9990
2 48976  87.9101  10.1363 0001771  88.9814 271.1520 13.16596089147457
ONEWEB-0259             
1 48977U 21060L   24188.90642611 -.00000007  00000+0 -51509-4 0  9998
2 48977  87.9102  10.1829 0001663  83.5359 276.5961 13.16596120146162
ONEWEB-0260             
1 48978U 21060M   24189.50570855  .00000073  00000+0  15782-3 0  9999
2 48978  87.9102  10.0925 0002446  92.1268 268.0143 13.16595125147505
ONEWEB-0261             
1 48979U 21060N   24189.55081731 -.00000164  00000+0 -46349-3 0  9991
2 48979  87.9104  10.0776 0002179  75.1724 284.9648 13.16593681147583
ONEWEB-0262             
1 48980U 21060P   24188.99984708 -.00000019  00000+0 -84107-4 0  9990
2 48980  87.9101  10.1507 0001654  74.7433 285.3880 13.16593429147475
ONEWEB-0263             
1 48981U 21060Q   24188.87950852 -.00000160  00000+0 -45272-3 0  9997
2 48981  87.9104  10.1918 0001911  74.2195 285.9146 13.16594032147428
ONEWEB-0264             
1 48982U 21060R   24188.91670839 -.00000034  00000+0 -12177-3 0  9995
2 48982  87.9103  10.1955 0001830  87.1563 272.9778 13.16589592146130
ONEWEB-0266             
1 48984U 21060T   24189.01408375 -.00000194  00000+0 -54174-3 0  9993
2 48984  87.9099  10.1532 0001727  90.5336 269.5993 13.16593953147439
